CCSDS_OMM_VERS = 2.0
CREATION_DATE  = 
ORIGINATOR     = 

OBJECT_NAME    = YOTSUBA-KULOVER
OBJECT_ID      = 1998-067XN
CENTER_NAME    = EARTH
REF_FRAME      = TEME
TIME_SYSTEM    = UTC
MEAN_ELEMENT_THEORY = SGP/SGP4

EPOCH          = 2026-03-07T01:10:41.260224
MEAN_MOTION    = 15.79230977
ECCENTRICITY   = .0005867
INCLINATION    = 51.6206
RA_OF_ASC_NODE = 70.9765
ARG_OF_PERICENTER = 49.9710
MEAN_ANOMALY   = 310.1805

EPHEMERIS_TYPE = 0
CLASSIFICATION_TYPE = U
NORAD_CAT_ID   = 65941
ELEMENT_SET_NO = 999
REV_AT_EPOCH   = 2308
BSTAR          = .11653E-2
MEAN_MOTION_DOT = .218746E-2
MEAN_MOTION_DDOT = 0

CCSDS_OMM_VERS = 2.0
CREATION_DATE  = 
ORIGINATOR     = 

OBJECT_NAME    = E-KAGAKU-1
OBJECT_ID      = 1998-067XQ
CENTER_NAME    = EARTH
REF_FRAME      = TEME
TIME_SYSTEM    = UTC
MEAN_ELEMENT_THEORY = SGP/SGP4

EPOCH          = 2026-03-07T01:16:18.164064
MEAN_MOTION    = 15.78919533
ECCENTRICITY   = .0006148
INCLINATION    = 51.6234
RA_OF_ASC_NODE = 71.0208
ARG_OF_PERICENTER = 55.7028
MEAN_ANOMALY   = 304.4554

EPHEMERIS_TYPE = 0
CLASSIFICATION_TYPE = U
NORAD_CAT_ID   = 65943
ELEMENT_SET_NO = 999
REV_AT_EPOCH   = 2308
BSTAR          = .11238E-2
MEAN_MOTION_DOT = .207743E-2
MEAN_MOTION_DDOT = 0

CCSDS_OMM_VERS = 2.0
CREATION_DATE  = 
ORIGINATOR     = 

OBJECT_NAME    = HRC MONOBLOCK CAMERA
OBJECT_ID      = 1998-067XR
CENTER_NAME    = EARTH
REF_FRAME      = TEME
TIME_SYSTEM    = UTC
MEAN_ELEMENT_THEORY = SGP/SGP4

EPOCH          = 2026-03-07T01:51:21.177216
MEAN_MOTION    = 15.61854733
ECCENTRICITY   = .0003627
INCLINATION    = 51.6269
RA_OF_ASC_NODE = 78.7144
ARG_OF_PERICENTER = 79.5524
MEAN_ANOMALY   = 280.5878

EPHEMERIS_TYPE = 0
CLASSIFICATION_TYPE = U
NORAD_CAT_ID   = 66052
ELEMENT_SET_NO = 999
REV_AT_EPOCH   = 2198
BSTAR          = .61713E-3
MEAN_MOTION_DOT = .54486E-3
MEAN_MOTION_DDOT = 0

CCSDS_OMM_VERS = 2.0
CREATION_DATE  = 
ORIGINATOR     = 

OBJECT_NAME    = HTV-X1
OBJECT_ID      = 2025-241A
CENTER_NAME    = EARTH
REF_FRAME      = TEME
TIME_SYSTEM    = UTC
MEAN_ELEMENT_THEORY = SGP/SGP4

EPOCH          = 2026-03-06T13:04:21.510624
MEAN_MOTION    = 15.48477653
ECCENTRICITY   = .00081171
INCLINATION    = 51.6317
RA_OF_ASC_NODE = 87.9051
ARG_OF_PERICENTER = 163.3368
MEAN_ANOMALY   = 196.7888

EPHEMERIS_TYPE = 0
CLASSIFICATION_TYPE = U
NORAD_CAT_ID   = 66174
ELEMENT_SET_NO = 999
REV_AT_EPOCH   = 55447
BSTAR          = .18044032E-3
MEAN_MOTION_DOT = .9332E-4
MEAN_MOTION_DDOT = 0

CCSDS_OMM_VERS = 2.0
CREATION_DATE  = 
ORIGINATOR     = 

OBJECT_NAME    = SZ-21 MODULE
OBJECT_ID      = 2025-246C
CENTER_NAME    = EARTH
REF_FRAME      = TEME
TIME_SYSTEM    = UTC
MEAN_ELEMENT_THEORY = SGP/SGP4

EPOCH          = 2026-03-06T12:11:03.500160
MEAN_MOTION    = 15.68252686
ECCENTRICITY   = .00014339
INCLINATION    = 41.4735
RA_OF_ASC_NODE = 222.9439
ARG_OF_PERICENTER = 292.6372
MEAN_ANOMALY   = 67.4317

EPHEMERIS_TYPE = 0
CLASSIFICATION_TYPE = U
NORAD_CAT_ID   = 66515
ELEMENT_SET_NO = 999
REV_AT_EPOCH   = 1757
BSTAR          = .36494457E-3
MEAN_MOTION_DOT = .4195E-3
MEAN_MOTION_DDOT = 0

CCSDS_OMM_VERS = 2.0
CREATION_DATE  = 
ORIGINATOR     = 

OBJECT_NAME    = SHENZHOU-22
OBJECT_ID      = 2025-272A
CENTER_NAME    = EARTH
REF_FRAME      = TEME
TIME_SYSTEM    = UTC
MEAN_ELEMENT_THEORY = SGP/SGP4

EPOCH          = 2026-03-07T02:12:09.879264
MEAN_MOTION    = 15.60509219
ECCENTRICITY   = .0006989
INCLINATION    = 41.4664
RA_OF_ASC_NODE = 223.9664
ARG_OF_PERICENTER = 257.1897
MEAN_ANOMALY   = 102.8161

EPHEMERIS_TYPE = 0
CLASSIFICATION_TYPE = U
NORAD_CAT_ID   = 66645
ELEMENT_SET_NO = 999
REV_AT_EPOCH   = 26879
BSTAR          = .30186E-3
MEAN_MOTION_DOT = .25371E-3
MEAN_MOTION_DDOT = 0

CCSDS_OMM_VERS = 2.0
CREATION_DATE  = 
ORIGINATOR     = 

OBJECT_NAME    = SOYUZ-MS 28
OBJECT_ID      = 2025-275A
CENTER_NAME    = EARTH
REF_FRAME      = TEME
TIME_SYSTEM    = UTC
MEAN_ELEMENT_THEORY = SGP/SGP4

EPOCH          = 2026-03-06T20:49:01.409088
MEAN_MOTION    = 15.48482048
ECCENTRICITY   = .0008109
INCLINATION    = 51.6318
RA_OF_ASC_NODE = 86.3097
ARG_OF_PERICENTER = 164.5613
MEAN_ANOMALY   = 195.5624

EPHEMERIS_TYPE = 0
CLASSIFICATION_TYPE = U
NORAD_CAT_ID   = 66664
ELEMENT_SET_NO = 999
REV_AT_EPOCH   = 55589
BSTAR          = .16627E-3
MEAN_MOTION_DOT = .8564E-4
MEAN_MOTION_DDOT = 0

CCSDS_OMM_VERS = 2.0
CREATION_DATE  = 
ORIGINATOR     = 

OBJECT_NAME    = DUPLEX
OBJECT_ID      = 1998-067XS
CENTER_NAME    = EARTH
REF_FRAME      = TEME
TIME_SYSTEM    = UTC
MEAN_ELEMENT_THEORY = SGP/SGP4

EPOCH          = 2026-03-06T10:32:36.618144
MEAN_MOTION    = 15.55966204
ECCENTRICITY   = .00021773
INCLINATION    = 51.6289
RA_OF_ASC_NODE = 85.7046
ARG_OF_PERICENTER = 98.7594
MEAN_ANOMALY   = 261.3644

EPHEMERIS_TYPE = 0
CLASSIFICATION_TYPE = U
NORAD_CAT_ID   = 66906
ELEMENT_SET_NO = 999
REV_AT_EPOCH   = 1462
BSTAR          = .45867993E-3
MEAN_MOTION_DOT = .32127E-3
MEAN_MOTION_DDOT = 0

CCSDS_OMM_VERS = 2.0
CREATION_DATE  = 
ORIGINATOR     = 

OBJECT_NAME    = ISS OBJECT XT
OBJECT_ID      = 1998-067XT
CENTER_NAME    = EARTH
REF_FRAME      = TEME
TIME_SYSTEM    = UTC
MEAN_ELEMENT_THEORY = SGP/SGP4

EPOCH          = 2026-03-07T00:50:02.704128
MEAN_MOTION    = 15.68270383
ECCENTRICITY   = .0004689
INCLINATION    = 51.6250
RA_OF_ASC_NODE = 79.1691
ARG_OF_PERICENTER = 60.7752
MEAN_ANOMALY   = 299.3713

EPHEMERIS_TYPE = 0
CLASSIFICATION_TYPE = U
NORAD_CAT_ID   = 66907
ELEMENT_SET_NO = 999
REV_AT_EPOCH   = 1476
BSTAR          = .13518E-2
MEAN_MOTION_DOT = .157029E-2
MEAN_MOTION_DDOT = 0

CCSDS_OMM_VERS = 2.0
CREATION_DATE  = 
ORIGINATOR     = 

OBJECT_NAME    = ISS OBJECT XU
OBJECT_ID      = 1998-067XU
CENTER_NAME    = EARTH
REF_FRAME      = TEME
TIME_SYSTEM    = UTC
MEAN_ELEMENT_THEORY = SGP/SGP4

EPOCH          = 2026-03-06T07:58:22.188864
MEAN_MOTION    = 15.68155385
ECCENTRICITY   = .0004715
INCLINATION    = 51.6249
RA_OF_ASC_NODE = 82.7244
ARG_OF_PERICENTER = 58.9313
MEAN_ANOMALY   = 301.2145

EPHEMERIS_TYPE = 0
CLASSIFICATION_TYPE = U
NORAD_CAT_ID   = 66908
ELEMENT_SET_NO = 999
REV_AT_EPOCH   = 1465
BSTAR          = .13221278E-2
MEAN_MOTION_DOT = .152767E-2
MEAN_MOTION_DDOT = 0

CCSDS_OMM_VERS = 2.0
CREATION_DATE  = 
ORIGINATOR     = 

OBJECT_NAME    = SILVERSAT
OBJECT_ID      = 1998-067XV
CENTER_NAME    = EARTH
REF_FRAME      = TEME
TIME_SYSTEM    = UTC
MEAN_ELEMENT_THEORY = SGP/SGP4

EPOCH          = 2026-03-07T00:56:12.805440
MEAN_MOTION    = 15.71023983
ECCENTRICITY   = .0005422
INCLINATION    = 51.6253
RA_OF_ASC_NODE = 78.4433
ARG_OF_PERICENTER = 56.7169
MEAN_ANOMALY   = 303.4348

EPHEMERIS_TYPE = 0
CLASSIFICATION_TYPE = U
NORAD_CAT_ID   = 66909
ELEMENT_SET_NO = 999
REV_AT_EPOCH   = 1477
BSTAR          = .15276E-2
MEAN_MOTION_DOT = .200094E-2
MEAN_MOTION_DDOT = 0

CCSDS_OMM_VERS = 2.0
CREATION_DATE  = 
ORIGINATOR     = 

OBJECT_NAME    = ISS OBJECT XW
OBJECT_ID      = 1998-067XW
CENTER_NAME    = EARTH
REF_FRAME      = TEME
TIME_SYSTEM    = UTC
MEAN_ELEMENT_THEORY = SGP/SGP4

EPOCH          = 2026-03-07T00:41:09.324960
MEAN_MOTION    = 15.67700500
ECCENTRICITY   = .0005065
INCLINATION    = 51.6240
RA_OF_ASC_NODE = 79.1197
ARG_OF_PERICENTER = 69.5355
MEAN_ANOMALY   = 290.6184

EPHEMERIS_TYPE = 0
CLASSIFICATION_TYPE = U
NORAD_CAT_ID   = 66910
ELEMENT_SET_NO = 999
REV_AT_EPOCH   = 1476
BSTAR          = .12471E-2
MEAN_MOTION_DOT = .141218E-2
MEAN_MOTION_DDOT = 0

