YOTSUBA-KULOVER         
1 65941U 98067XN  26066.04908866  .00218746  00000+0  11653-2 0  9991
2 65941  51.6206  70.9765 0005867  49.9710 310.1805 15.79230977 23088
E-KAGAKU-1              
1 65943U 98067XQ  26066.05298801  .00207743  00000+0  11238-2 0  9999
2 65943  51.6234  71.0208 0006148  55.7028 304.4554 15.78919533 23083
HRC MONOBLOCK CAMERA    
1 66052U 98067XR  26066.07732844  .00054486  00000+0  61713-3 0  9991
2 66052  51.6269  78.7144 0003627  79.5524 280.5878 15.61854733 21982
HTV-X1                  
1 66174U 25241A   26065.54469341  .00009332  00000+0  18044-3 0  9999
2 66174  51.6317  87.9051 0008117 163.3368 196.7888 15.48477653554478
SZ-21 MODULE            
1 66515U 25246C   26065.50767940  .00041950  00000+0  36494-3 0  9996
2 66515  41.4735 222.9439 0001433 292.6372  67.4317 15.68252686 17579
SHENZHOU-22             
1 66645U 25272A   26066.09178101  .00025371  00000+0  30186-3 0  9990
2 66645  41.4664 223.9664 0006989 257.1897 102.8161 15.60509219268796
SOYUZ-MS 28             
1 66664U 25275A   26065.86737742  .00008564  00000+0  16627-3 0  9999
2 66664  51.6318  86.3097 0008109 164.5613 195.5624 15.48482048555899
DUPLEX                  
1 66906U 98067XS  26065.43931271  .00032127  00000+0  45868-3 0  9994
2 66906  51.6289  85.7046 0002177  98.7594 261.3644 15.55966204 14621
ISS OBJECT XT           
1 66907U 98067XT  26066.03475352  .00157029  00000+0  13518-2 0  9990
2 66907  51.6250  79.1691 0004689  60.7752 299.3713 15.68270383 14761
ISS OBJECT XU           
1 66908U 98067XU  26065.33220126  .00152767  00000+0  13221-2 0  9995
2 66908  51.6249  82.7244 0004715  58.9313 301.2145 15.68155385 14650
SILVERSAT               
1 66909U 98067XV  26066.03903710  .00200094  00000+0  15276-2 0  9990
2 66909  51.6253  78.4433 0005422  56.7169 303.4348 15.71023983 14773
ISS OBJECT XW           
1 66910U 98067XW  26066.02858015  .00141218  00000+0  12471-2 0  9994
2 66910  51.6240  79.1197 0005065  69.5355 290.6184 15.67700500 14764
